{
  "type": "FeatureCollection",
  "features": [
    {
      "type": "Feature",
      "properties": {
        "norad_id": 32163,
        "name": "FENGYUN 1C DEB",
        "group": "fengyun-1c-debris",
        "lat": -56.72491272202929,
        "lon": 23.491457176487827,
        "alt_km": 731.8247365583702,
        "timestamp": "2025-12-27T02:10:16.475107+00:00",
        "meta_object_name": "FENGYUN 1C DEB",
        "meta_object_id": "1999-025CTH",
        "meta_epoch": "2025-12-24T19:31:43.013856",
        "meta_mean_motion": 14.43196985,
        "meta_eccentricity": 0.00511739,
        "meta_inclination": 99.5457,
        "meta_ra_of_asc_node": 6.0859,
        "meta_arg_of_pericenter": 359.6519,
        "meta_mean_anomaly": 0.4623,
        "meta_ephemeris_type": 0,
        "meta_classification_type": "U",
        "meta_norad_cat_id": 32163,
        "meta_element_set_no": 999,
        "meta_rev_at_epoch": 61150,
        "meta_bstar": 0.00093751652,
        "meta_mean_motion_dot": 3.148e-05,
        "meta_mean_motion_ddot": 0,
        "tle_line1": "1 32163U 99025CTH 25358.81369229  .00003148  00000+0  93752-3 0  9997",
        "tle_line2": "2 32163  99.5457   6.0859 0051173 359.6519   0.4623 14.43196985611507"
      },
      "geometry": {
        "type": "Point",
        "coordinates": [
          23.491457176487827,
          -56.72491272202929
        ]
      }
    },
    {
      "type": "Feature",
      "properties": {
        "norad_id": 32167,
        "name": "FENGYUN 1C DEB",
        "group": "fengyun-1c-debris",
        "lat": 53.52491072601669,
        "lon": -16.370265853588105,
        "alt_km": 692.850241609608,
        "timestamp": "2025-12-27T02:10:16.475119+00:00",
        "meta_object_name": "FENGYUN 1C DEB",
        "meta_object_id": "1999-025CTM",
        "meta_epoch": "2025-12-23T05:37:55.562304",
        "meta_mean_motion": 14.31006431,
        "meta_eccentricity": 0.01683439,
        "meta_inclination": 98.4784,
        "meta_ra_of_asc_node": 351.5064,
        "meta_arg_of_pericenter": 23.7384,
        "meta_mean_anomaly": 337.145,
        "meta_ephemeris_type": 0,
        "meta_classification_type": "U",
        "meta_norad_cat_id": 32167,
        "meta_element_set_no": 999,
        "meta_rev_at_epoch": 62825,
        "meta_bstar": 0.00039494566,
        "meta_mean_motion_dot": 1.167e-05,
        "meta_mean_motion_ddot": 0,
        "tle_line1": "1 32167U 99025CTM 25357.23467086  .00001167  00000+0  39495-3 0  9999",
        "tle_line2": "2 32167  98.4784 351.5064 0168343  23.7384 337.1450 14.31006431628256"
      },
      "geometry": {
        "type": "Point",
        "coordinates": [
          -16.370265853588105,
          53.52491072601669
        ]
      }
    },
    {
      "type": "Feature",
      "properties": {
        "norad_id": 32168,
        "name": "FENGYUN 1C DEB",
        "group": "fengyun-1c-debris",
        "lat": 23.580860165129526,
        "lon": -101.19295424739178,
        "alt_km": 817.7007855237007,
        "timestamp": "2025-12-27T02:10:16.475129+00:00",
        "meta_object_name": "FENGYUN 1C DEB",
        "meta_object_id": "1999-025CTN",
        "meta_epoch": "2025-12-22T15:44:38.689440",
        "meta_mean_motion": 13.86225552,
        "meta_eccentricity": 0.0243515,
        "meta_inclination": 101.656,
        "meta_ra_of_asc_node": 68.1263,
        "meta_arg_of_pericenter": 213.8835,
        "meta_mean_anomaly": 144.6549,
        "meta_ephemeris_type": 0,
        "meta_classification_type": "U",
        "meta_norad_cat_id": 32168,
        "meta_element_set_no": 999,
        "meta_rev_at_epoch": 63617,
        "meta_bstar": 0.0032707228,
        "meta_mean_motion_dot": 4.707e-05,
        "meta_mean_motion_ddot": 0,
        "tle_line1": "1 32168U 99025CTN 25356.65600335  .00004707  00000+0  32707-2 0  9992",
        "tle_line2": "2 32168 101.6560  68.1263 0243515 213.8835 144.6549 13.86225552636172"
      },
      "geometry": {
        "type": "Point",
        "coordinates": [
          -101.19295424739178,
          23.580860165129526
        ]
      }
    },
    {
      "type": "Feature",
      "properties": {
        "norad_id": 32169,
        "name": "FENGYUN 1C DEB",
        "group": "fengyun-1c-debris",
        "lat": -13.795193286521084,
        "lon": -167.47359753922308,
        "alt_km": 669.5931547035107,
        "timestamp": "2025-12-27T02:10:16.475139+00:00",
        "meta_object_name": "FENGYUN 1C DEB",
        "meta_object_id": "1999-025CTP",
        "meta_epoch": "2025-12-24T23:32:07.048032",
        "meta_mean_motion": 14.68293957,
        "meta_eccentricity": 0.00336615,
        "meta_inclination": 98.5575,
        "meta_ra_of_asc_node": 188.2018,
        "meta_arg_of_pericenter": 80.0606,
        "meta_mean_anomaly": 280.4394,
        "meta_ephemeris_type": 0,
        "meta_classification_type": "U",
        "meta_norad_cat_id": 32169,
        "meta_element_set_no": 999,
        "meta_rev_at_epoch": 96798,
        "meta_bstar": 0.0040886304,
        "meta_mean_motion_dot": 0.00023814,
        "meta_mean_motion_ddot": 0,
        "tle_line1": "1 32169U 99025CTP 25358.98063713  .00023814  00000+0  40886-2 0  9991",
        "tle_line2": "2 32169  98.5575 188.2018 0033661  80.0606 280.4394 14.68293957967982"
      },
      "geometry": {
        "type": "Point",
        "coordinates": [
          -167.47359753922308,
          -13.795193286521084
        ]
      }
    },
    {
      "type": "Feature",
      "properties": {
        "norad_id": 32171,
        "name": "FENGYUN 1C DEB",
        "group": "fengyun-1c-debris",
        "lat": 47.26069390312729,
        "lon": 96.22450474601743,
        "alt_km": 1425.7282045424772,
        "timestamp": "2025-12-27T02:10:16.475149+00:00",
        "meta_object_name": "FENGYUN 1C DEB",
        "meta_object_id": "1999-025CTR",
        "meta_epoch": "2025-12-19T23:42:54.324864",
        "meta_mean_motion": 13.42626137,
        "meta_eccentricity": 0.04889608,
        "meta_inclination": 102.8047,
        "meta_ra_of_asc_node": 252.9563,
        "meta_arg_of_pericenter": 350.4446,
        "meta_mean_anomaly": 24.1541,
        "meta_ephemeris_type": 0,
        "meta_classification_type": "U",
        "meta_norad_cat_id": 32171,
        "meta_element_set_no": 999,
        "meta_rev_at_epoch": 60713,
        "meta_bstar": 0.0031070162,
        "meta_mean_motion_dot": 3.53e-05,
        "meta_mean_motion_ddot": 0,
        "tle_line1": "1 32171U 99025CTR 25353.98812876  .00003530  00000+0  31070-2 0  9999",
        "tle_line2": "2 32171 102.8047 252.9563 0488960 350.4446  24.1541 13.42626137607130"
      },
      "geometry": {
        "type": "Point",
        "coordinates": [
          96.22450474601743,
          47.26069390312729
        ]
      }
    },
    {
      "type": "Feature",
      "properties": {
        "norad_id": 32174,
        "name": "FENGYUN 1C DEB",
        "group": "fengyun-1c-debris",
        "lat": -78.89679523448224,
        "lon": 113.246304310907,
        "alt_km": 805.4283751486446,
        "timestamp": "2025-12-27T02:10:16.475161+00:00",
        "meta_object_name": "FENGYUN 1C DEB",
        "meta_object_id": "1999-025CTU",
        "meta_epoch": "2025-12-24T22:03:55.021248",
        "meta_mean_motion": 14.1793552,
        "meta_eccentricity": 0.0151034,
        "meta_inclination": 98.5999,
        "meta_ra_of_asc_node": 60.6893,
        "meta_arg_of_pericenter": 210.8031,
        "meta_mean_anomaly": 148.4216,
        "meta_ephemeris_type": 0,
        "meta_classification_type": "U",
        "meta_norad_cat_id": 32174,
        "meta_element_set_no": 999,
        "meta_rev_at_epoch": 64278,
        "meta_bstar": 0.00027956,
        "meta_mean_motion_dot": 5.97e-06,
        "meta_mean_motion_ddot": 0,
        "tle_line1": "1 32174U 99025CTU 25358.91938682  .00000597  00000+0  27956-3 0  9993",
        "tle_line2": "2 32174  98.5999  60.6893 0151034 210.8031 148.4216 14.17935520642789"
      },
      "geometry": {
        "type": "Point",
        "coordinates": [
          113.246304310907,
          -78.89679523448224
        ]
      }
    },
    {
      "type": "Feature",
      "properties": {
        "norad_id": 32175,
        "name": "FENGYUN 1C DEB",
        "group": "fengyun-1c-debris",
        "lat": 54.69605033697357,
        "lon": -23.639087638829245,
        "alt_km": 979.2705873052364,
        "timestamp": "2025-12-27T02:10:16.475171+00:00",
        "meta_object_name": "FENGYUN 1C DEB",
        "meta_object_id": "1999-025CTV",
        "meta_epoch": "2025-12-23T04:56:33.925344",
        "meta_mean_motion": 13.94880841,
        "meta_eccentricity": 0.01517458,
        "meta_inclination": 98.8236,
        "meta_ra_of_asc_node": 345.3153,
        "meta_arg_of_pericenter": 294.464,
        "meta_mean_anomaly": 64.0759,
        "meta_ephemeris_type": 0,
        "meta_classification_type": "U",
        "meta_norad_cat_id": 32175,
        "meta_element_set_no": 999,
        "meta_rev_at_epoch": 59986,
        "meta_bstar": 0.0025272856,
        "meta_mean_motion_dot": 3.694e-05,
        "meta_mean_motion_ddot": 0,
        "tle_line1": "1 32175U 99025CTV 25357.20594821  .00003694  00000+0  25273-2 0  9998",
        "tle_line2": "2 32175  98.8236 345.3153 0151745 294.4640  64.0759 13.94880841599866"
      },
      "geometry": {
        "type": "Point",
        "coordinates": [
          -23.639087638829245,
          54.69605033697357
        ]
      }
    }
  ]
}